ATLAS CENTAUR 2         
1 00694U 63047A   26047.12384234  .00001448  00000+0  16210-3 0  9994
2 00694  30.3580 316.1599 0548104 250.2509 103.8192 14.12006028128570
THOR AGENA D R/B        
1 00733U 64002A   26047.03188288  .00000251  00000+0  10674-3 0  9990
2 00733  99.1229  59.1895 0032318 323.0786  36.8173 14.34006580235199
SL-3 R/B                
1 00877U 64053B   26047.13497667  .00000405  00000+0  10269-3 0  9991
2 00877  65.0771  34.4278 0078732 299.0839  60.2392 14.61345009263641
SL-8 R/B                
1 02802U 67045B   26047.12221396  .00000416  00000+0  12277-3 0  9991
2 02802  74.0110  28.3645 0063372  39.9712 320.6085 14.45599847 85909
SL-8 R/B                
1 03230U 68040B   26047.01289569  .00004264  00000+0  31695-3 0  9997
2 03230  74.0331 357.9767 0024934 188.5897 171.4869 15.03093482 86757
OAO 2                   
1 03597U 68110A   26047.05189042  .00000277  00000+0  79858-4 0  9994
2 03597  34.9947  26.0291 0005232  18.4976 341.5904 14.47294179 15964
ISIS 1                  
1 03669U 69009A   26046.85763994  .00000259  00000+0  16957-3 0  9993
2 03669  88.4555 157.6872 1707876 133.2098 242.4951 11.30406332346068
SERT 2                  
1 04327U 70009A   26046.82712176 -.00000008  00000+0  44911-4 0  9995
2 04327  99.2732 351.1203 0004200 213.3945 201.3648 13.58727543776928
SL-3 R/B                
1 05118U 71028B   26047.10622785  .00034679  00000+0  43606-3 0  9993
2 05118  81.2327  78.6549 0016645  10.6957 349.4645 15.59330060985301
ASTEX 1                 
1 05560U 71089A   26047.16437469  .00000558  00000+0  14190-3 0  9995
2 05560  92.7147 144.7963 0016778 150.3651 209.8509 14.50744668859181
SL-8 R/B                
1 05730U 71119B   26047.15238076  .00015615  00000+0  80970-3 0  9999
2 05730  73.8844 215.9550 0552683 187.0272 172.2909 14.37168756652397
OAO 3 (COPERNICUS)      
1 06153U 72065A   26047.05142578  .00000441  00000+0  94858-4 0  9992
2 06153  35.0060  60.5931 0006805 338.6046  51.6110 14.59978532843039
