CCSDS_OMM_VERS = 2.0
CREATION_DATE  = 
ORIGINATOR     = 

OBJECT_NAME    = ATLAS CENTAUR 2
OBJECT_ID      = 1963-047A
CENTER_NAME    = EARTH
REF_FRAME      = TEME
TIME_SYSTEM    = UTC
MEAN_ELEMENT_THEORY = SGP/SGP4

EPOCH          = 2026-02-16T02:58:19.978176
MEAN_MOTION    = 14.12006028
ECCENTRICITY   = .0548104
INCLINATION    = 30.3580
RA_OF_ASC_NODE = 316.1599
ARG_OF_PERICENTER = 250.2509
MEAN_ANOMALY   = 103.8192

EPHEMERIS_TYPE = 0
CLASSIFICATION_TYPE = U
NORAD_CAT_ID   = 694
ELEMENT_SET_NO = 999
REV_AT_EPOCH   = 12857
BSTAR          = .1621E-3
MEAN_MOTION_DOT = .1448E-4
MEAN_MOTION_DDOT = 0

CCSDS_OMM_VERS = 2.0
CREATION_DATE  = 
ORIGINATOR     = 

OBJECT_NAME    = THOR AGENA D R/B
OBJECT_ID      = 1964-002A
CENTER_NAME    = EARTH
REF_FRAME      = TEME
TIME_SYSTEM    = UTC
MEAN_ELEMENT_THEORY = SGP/SGP4

EPOCH          = 2026-02-16T00:45:54.680832
MEAN_MOTION    = 14.34006580
ECCENTRICITY   = .0032318
INCLINATION    = 99.1229
RA_OF_ASC_NODE = 59.1895
ARG_OF_PERICENTER = 323.0786
MEAN_ANOMALY   = 36.8173

EPHEMERIS_TYPE = 0
CLASSIFICATION_TYPE = U
NORAD_CAT_ID   = 733
ELEMENT_SET_NO = 999
REV_AT_EPOCH   = 23519
BSTAR          = .10674E-3
MEAN_MOTION_DOT = .251E-5
MEAN_MOTION_DDOT = 0

CCSDS_OMM_VERS = 2.0
CREATION_DATE  = 
ORIGINATOR     = 

OBJECT_NAME    = SL-3 R/B
OBJECT_ID      = 1964-053B
CENTER_NAME    = EARTH
REF_FRAME      = TEME
TIME_SYSTEM    = UTC
MEAN_ELEMENT_THEORY = SGP/SGP4

EPOCH          = 2026-02-16T03:14:21.984288
MEAN_MOTION    = 14.61345009
ECCENTRICITY   = .0078732
INCLINATION    = 65.0771
RA_OF_ASC_NODE = 34.4278
ARG_OF_PERICENTER = 299.0839
MEAN_ANOMALY   = 60.2392

EPHEMERIS_TYPE = 0
CLASSIFICATION_TYPE = U
NORAD_CAT_ID   = 877
ELEMENT_SET_NO = 999
REV_AT_EPOCH   = 26364
BSTAR          = .10269E-3
MEAN_MOTION_DOT = .405E-5
MEAN_MOTION_DDOT = 0

CCSDS_OMM_VERS = 2.0
CREATION_DATE  = 
ORIGINATOR     = 

OBJECT_NAME    = SL-8 R/B
OBJECT_ID      = 1967-045B
CENTER_NAME    = EARTH
REF_FRAME      = TEME
TIME_SYSTEM    = UTC
MEAN_ELEMENT_THEORY = SGP/SGP4

EPOCH          = 2026-02-16T02:55:59.286144
MEAN_MOTION    = 14.45599847
ECCENTRICITY   = .0063372
INCLINATION    = 74.0110
RA_OF_ASC_NODE = 28.3645
ARG_OF_PERICENTER = 39.9712
MEAN_ANOMALY   = 320.6085

EPHEMERIS_TYPE = 0
CLASSIFICATION_TYPE = U
NORAD_CAT_ID   = 2802
ELEMENT_SET_NO = 999
REV_AT_EPOCH   = 8590
BSTAR          = .12277E-3
MEAN_MOTION_DOT = .416E-5
MEAN_MOTION_DDOT = 0

CCSDS_OMM_VERS = 2.0
CREATION_DATE  = 
ORIGINATOR     = 

OBJECT_NAME    = SL-8 R/B
OBJECT_ID      = 1968-040B
CENTER_NAME    = EARTH
REF_FRAME      = TEME
TIME_SYSTEM    = UTC
MEAN_ELEMENT_THEORY = SGP/SGP4

EPOCH          = 2026-02-16T00:18:34.187616
MEAN_MOTION    = 15.03093482
ECCENTRICITY   = .0024934
INCLINATION    = 74.0331
RA_OF_ASC_NODE = 357.9767
ARG_OF_PERICENTER = 188.5897
MEAN_ANOMALY   = 171.4869

EPHEMERIS_TYPE = 0
CLASSIFICATION_TYPE = U
NORAD_CAT_ID   = 3230
ELEMENT_SET_NO = 999
REV_AT_EPOCH   = 8675
BSTAR          = .31695E-3
MEAN_MOTION_DOT = .4264E-4
MEAN_MOTION_DDOT = 0

CCSDS_OMM_VERS = 2.0
CREATION_DATE  = 
ORIGINATOR     = 

OBJECT_NAME    = OAO 2
OBJECT_ID      = 1968-110A
CENTER_NAME    = EARTH
REF_FRAME      = TEME
TIME_SYSTEM    = UTC
MEAN_ELEMENT_THEORY = SGP/SGP4

EPOCH          = 2026-02-16T01:14:43.332288
MEAN_MOTION    = 14.47294179
ECCENTRICITY   = .0005232
INCLINATION    = 34.9947
RA_OF_ASC_NODE = 26.0291
ARG_OF_PERICENTER = 18.4976
MEAN_ANOMALY   = 341.5904

EPHEMERIS_TYPE = 0
CLASSIFICATION_TYPE = U
NORAD_CAT_ID   = 3597
ELEMENT_SET_NO = 999
REV_AT_EPOCH   = 1596
BSTAR          = .79858E-4
MEAN_MOTION_DOT = .277E-5
MEAN_MOTION_DDOT = 0

CCSDS_OMM_VERS = 2.0
CREATION_DATE  = 
ORIGINATOR     = 

OBJECT_NAME    = ISIS 1
OBJECT_ID      = 1969-009A
CENTER_NAME    = EARTH
REF_FRAME      = TEME
TIME_SYSTEM    = UTC
MEAN_ELEMENT_THEORY = SGP/SGP4

EPOCH          = 2026-02-15T20:35:00.090816
MEAN_MOTION    = 11.30406332
ECCENTRICITY   = .1707876
INCLINATION    = 88.4555
RA_OF_ASC_NODE = 157.6872
ARG_OF_PERICENTER = 133.2098
MEAN_ANOMALY   = 242.4951

EPHEMERIS_TYPE = 0
CLASSIFICATION_TYPE = U
NORAD_CAT_ID   = 3669
ELEMENT_SET_NO = 999
REV_AT_EPOCH   = 34606
BSTAR          = .16957E-3
MEAN_MOTION_DOT = .259E-5
MEAN_MOTION_DDOT = 0

CCSDS_OMM_VERS = 2.0
CREATION_DATE  = 
ORIGINATOR     = 

OBJECT_NAME    = SERT 2
OBJECT_ID      = 1970-009A
CENTER_NAME    = EARTH
REF_FRAME      = TEME
TIME_SYSTEM    = UTC
MEAN_ELEMENT_THEORY = SGP/SGP4

EPOCH          = 2026-02-15T19:51:03.320064
MEAN_MOTION    = 13.58727543
ECCENTRICITY   = .00042009
INCLINATION    = 99.2732
RA_OF_ASC_NODE = 351.1203
ARG_OF_PERICENTER = 213.3945
MEAN_ANOMALY   = 201.3648

EPHEMERIS_TYPE = 0
CLASSIFICATION_TYPE = U
NORAD_CAT_ID   = 4327
ELEMENT_SET_NO = 999
REV_AT_EPOCH   = 77692
BSTAR          = .44911146E-4
MEAN_MOTION_DOT = -.8E-7
MEAN_MOTION_DDOT = 0

CCSDS_OMM_VERS = 2.0
CREATION_DATE  = 
ORIGINATOR     = 

OBJECT_NAME    = SL-3 R/B
OBJECT_ID      = 1971-028B
CENTER_NAME    = EARTH
REF_FRAME      = TEME
TIME_SYSTEM    = UTC
MEAN_ELEMENT_THEORY = SGP/SGP4

EPOCH          = 2026-02-16T02:32:58.086240
MEAN_MOTION    = 15.59330060
ECCENTRICITY   = .0016645
INCLINATION    = 81.2327
RA_OF_ASC_NODE = 78.6549
ARG_OF_PERICENTER = 10.6957
MEAN_ANOMALY   = 349.4645

EPHEMERIS_TYPE = 0
CLASSIFICATION_TYPE = U
NORAD_CAT_ID   = 5118
ELEMENT_SET_NO = 999
REV_AT_EPOCH   = 98530
BSTAR          = .43606E-3
MEAN_MOTION_DOT = .34679E-3
MEAN_MOTION_DDOT = 0

CCSDS_OMM_VERS = 2.0
CREATION_DATE  = 
ORIGINATOR     = 

OBJECT_NAME    = ASTEX 1
OBJECT_ID      = 1971-089A
CENTER_NAME    = EARTH
REF_FRAME      = TEME
TIME_SYSTEM    = UTC
MEAN_ELEMENT_THEORY = SGP/SGP4

EPOCH          = 2026-02-16T03:56:41.973216
MEAN_MOTION    = 14.50744668
ECCENTRICITY   = .0016778
INCLINATION    = 92.7147
RA_OF_ASC_NODE = 144.7963
ARG_OF_PERICENTER = 150.3651
MEAN_ANOMALY   = 209.8509

EPHEMERIS_TYPE = 0
CLASSIFICATION_TYPE = U
NORAD_CAT_ID   = 5560
ELEMENT_SET_NO = 999
REV_AT_EPOCH   = 85918
BSTAR          = .1419E-3
MEAN_MOTION_DOT = .558E-5
MEAN_MOTION_DDOT = 0

CCSDS_OMM_VERS = 2.0
CREATION_DATE  = 
ORIGINATOR     = 

OBJECT_NAME    = SL-8 R/B
OBJECT_ID      = 1971-119B
CENTER_NAME    = EARTH
REF_FRAME      = TEME
TIME_SYSTEM    = UTC
MEAN_ELEMENT_THEORY = SGP/SGP4

EPOCH          = 2026-02-16T03:39:25.697664
MEAN_MOTION    = 14.37168756
ECCENTRICITY   = .0552683
INCLINATION    = 73.8844
RA_OF_ASC_NODE = 215.9550
ARG_OF_PERICENTER = 187.0272
MEAN_ANOMALY   = 172.2909

EPHEMERIS_TYPE = 0
CLASSIFICATION_TYPE = U
NORAD_CAT_ID   = 5730
ELEMENT_SET_NO = 999
REV_AT_EPOCH   = 65239
BSTAR          = .8097E-3
MEAN_MOTION_DOT = .15615E-3
MEAN_MOTION_DDOT = 0

CCSDS_OMM_VERS = 2.0
CREATION_DATE  = 
ORIGINATOR     = 

OBJECT_NAME    = OAO 3 (COPERNICUS)
OBJECT_ID      = 1972-065A
CENTER_NAME    = EARTH
REF_FRAME      = TEME
TIME_SYSTEM    = UTC
MEAN_ELEMENT_THEORY = SGP/SGP4

EPOCH          = 2026-02-16T01:14:03.187392
MEAN_MOTION    = 14.59978532
ECCENTRICITY   = .0006805
INCLINATION    = 35.0060
RA_OF_ASC_NODE = 60.5931
ARG_OF_PERICENTER = 338.6046
MEAN_ANOMALY   = 51.6110

EPHEMERIS_TYPE = 0
CLASSIFICATION_TYPE = U
NORAD_CAT_ID   = 6153
ELEMENT_SET_NO = 999
REV_AT_EPOCH   = 84303
BSTAR          = .94858E-4
MEAN_MOTION_DOT = .441E-5
MEAN_MOTION_DDOT = 0

